{
    "links": {
        "self": "http://www.neowsapp.com/rest/v1/neo/3666236?api_key=iIulBulltgU6a56xZRHN4H3l9WmuAYTsLGpBGhQ2"
    },
    "id": "3666236",
    "neo_reference_id": "3666236",
    "name": "(2014 FH)",
    "designation": "2014 FH",
    "nasa_jpl_url": "http://ssd.jpl.nasa.gov/sbdb.cgi?sstr=3666236",
    "absolute_magnitude_h": 23.4,
    "estimated_diameter": {
        "kilometers": {
            "estimated_diameter_min": 0.0555334912,
            "estimated_diameter_max": 0.1241766613
        },
        "meters": {
            "estimated_diameter_min": 55.5334911581,
            "estimated_diameter_max": 124.1766612574
        },
        "miles": {
            "estimated_diameter_min": 0.0345069009,
            "estimated_diameter_max": 0.0771597762
        },
        "feet": {
            "estimated_diameter_min": 182.1964991311,
            "estimated_diameter_max": 407.4037573197
        }
    },
    "is_potentially_hazardous_asteroid": false,
    "close_approach_data": [
        {
            "close_approach_date": "2014-03-19",
            "close_approach_date_full": "2014-Mar-19 12:19",
            "epoch_date_close_approach": 1395231540000,
            "relative_velocity": {
                "kilometers_per_second": "29.8198942827",
                "kilometers_per_hour": "107351.6194177855",
                "miles_per_hour": "66704.1215210123"
            },
            "miss_distance": {
                "astronomical": "0.0332483304",
                "lunar": "12.9336005256",
                "kilometers": "4973879.408896248",
                "miles": "3090625.3504863024"
            },
            "orbiting_body": "Earth"
        }
    ],
    "orbital_data": {
        "orbit_id": "8",
        "orbit_determination_date": "2017-04-06 08:42:00",
        "first_observation_date": "2014-03-21",
        "last_observation_date": "2014-04-04",
        "data_arc_in_days": 14,
        "observations_used": 44,
        "orbit_uncertainty": "8",
        "minimum_orbit_intersection": ".0210655",
        "jupiter_tisserand_invariant": "3.586",
        "epoch_osculation": "2456740.5",
        "eccentricity": ".8529841839017273",
        "semi_major_axis": "1.736711774155521",
        "inclination": "12.00836303198576",
        "ascending_node_longitude": "174.0693776136531",
        "orbital_period": "835.9687630245539",
        "perihelion_distance": ".2553240988049531",
        "perihelion_argument": "237.9253020413079",
        "aphelion_distance": "3.21809944950609",
        "perihelion_time": "2456694.713253935753",
        "mean_anomaly": "19.71751734298328",
        "mean_motion": ".4306381002772303",
        "equinox": "J2000",
        "orbit_class": {
            "orbit_class_type": "APO",
            "orbit_class_description": "Near-Earth asteroid orbits which cross the Earth’s orbit similar to that of 1862 Apollo",
            "orbit_class_range": "a (semi-major axis) > 1.0 AU; q (perihelion) < 1.017 AU"
        }
    },
    "is_sentry_object": false
}